STARLINK-34236          
1 64743U 25144V   25362.63969192  .00066925  00000+0  22498-2 0  9997
2 64743  53.1571 151.0700 0001188  69.8292 290.2836 15.30224271 28834
STARLINK-34185          
1 64744U 25144W   25362.81239898  .00027598  00000+0  94022-3 0  9997
2 64744  53.1594 150.0132 0001148  73.9251 286.1876 15.30208352 28868
STARLINK-34581          
1 64745U 25144X   25362.40374735  .00025712  00000+0  87758-3 0  9997
2 64745  53.1604 152.4381 0000575 137.7791 222.3254 15.30187619 28790
STARLINK-34592          
1 64746U 25144Y   25362.63065222  .00073145  00000+0  18217-2 0  9997
2 64746  53.1563 141.0767 0001539  53.4585 306.6561 15.39609294 28977
STARLINK-34589          
1 64747U 25144Z   25362.66654471  .00037681  00000+0  12767-2 0  9990
2 64747  53.1574 138.3948 0000558  55.2300 304.8753 15.30231185 29015
STARLINK-34536          
1 64748U 25144AA  25362.84194623  .00018666  00000+0  64076-3 0  9992
2 64748  53.1573 150.1941 0001036  85.0514 275.0605 15.30200187 28865
STARLINK-34595          
1 64749U 25144AB  25362.71237182  .00022168  00000+0  75832-3 0  9991
2 64749  53.1567 150.8054 0000801  56.5952 303.5126 15.30201994 28849
STARLINK-34531          
1 64750U 25144AC  25362.56485815  .00032073  00000+0  10906-2 0  9990
2 64750  53.1577 151.3143 0000824  51.9480 308.1595 15.30194101 28827
STARLINK-33965          
1 64755U 25147A   25362.83256457  .00033750  00000+0  11458-2 0  9992
2 64755  53.1594 211.8523 0000995 109.8528 250.2580 15.30219783 27947
STARLINK-34371          
1 64756U 25147B   25362.85472633  .00031129  00000+0  10582-2 0  9996
2 64756  53.1593 211.9854 0001608  79.5461 280.5721 15.30216166 27851
STARLINK-34401          
1 64757U 25147C   25362.86527618  .00018699  00000+0  64188-3 0  9991
2 64757  53.1586 212.0522 0001279  88.3625 271.7522 15.30200347 27835
STARLINK-34593          
1 64758U 25147D   25362.83153495  .00022911  00000+0  78375-3 0  9992
2 64758  53.1577 211.8429 0001298  69.4906 290.6234 15.30180268 27909
STARLINK-34598          
1 64759U 25147E   25362.81884542  .00028676  00000+0  97609-3 0  9990
2 64759  53.1570 211.7599 0001006  83.8315 276.2801 15.30215760 27851
STARLINK-34235          
1 64760U 25147F   25362.77041758  .00029214  00000+0  99416-3 0  9998
2 64760  53.1594 212.1736 0001300 112.5538 247.5600 15.30214210 27937
STARLINK-34635          
1 64761U 25147G   25362.81990196  .00016753  00000+0  57641-3 0  9991
2 64761  53.1570 211.7695 0001179  93.0900 267.0236 15.30203959 27908
STARLINK-34638          
1 64762U 25147H   25362.84098801  .00000965  00000+0  44702-4 0  9990
2 64762  53.1602 211.8999 0001604  51.8268 308.2877 15.30198341 27902
STARLINK-34534          
1 64763U 25147J   25362.84839310  .00026648  00000+0  90825-3 0  9991
2 64763  53.1604 211.9402 0001308 116.2285 243.8851 15.30213645 27902
STARLINK-34261          
1 64764U 25147K   25362.77252728  .00024344  00000+0  83111-3 0  9997
2 64764  53.1599 212.1782 0001363 106.2677 253.8474 15.30209655 27936
STARLINK-34566          
1 64765U 25147L   25362.82517821  .00023336  00000+0  79734-3 0  9998
2 64765  53.1567 211.7986 0001306  97.4421 262.6728 15.30208019 27908
STARLINK-34645          
1 64766U 25147M   25362.86738811  .00020968  00000+0  71795-3 0  9994
2 64766  53.1586 212.0624 0001332  84.0426 276.0726 15.30206027 27903
STARLINK-34639          
1 64767U 25147N   25362.82412113  .00020280  00000+0  69478-3 0  9997
2 64767  53.1570 211.7905 0001199  80.1812 279.9324 15.30208710 27853
STARLINK-34609          
1 64768U 25147P   25362.74310095  .00070144  00000+0  17460-2 0  9992
2 64768  53.1584 203.4840 0001047  91.8702 268.2422 15.39646465 28015
STARLINK-34246          
1 64769U 25147Q   25362.82623473  .00008346  00000+0  29357-3 0  9993
2 64769  53.1559 211.8086 0001220  77.9087 282.2051 15.30201613 27901
STARLINK-34618          
1 64770U 25147R   25362.82939752  .00018524  00000+0  63592-3 0  9993
2 64770  53.1576 211.8276 0000797 108.4796 251.6291 15.30203677 27838
STARLINK-34541          
1 64771U 25147S   25362.74403595  .00017255  00000+0  59332-3 0  9993
2 64771  53.1573 212.0039 0001393  38.2377 321.8722 15.30201477 27828
STARLINK-34652          
1 64772U 25147T   25362.74297681  .00016873  00000+0  58056-3 0  9998
2 64772  53.1564 211.9954 0000979  60.5421 299.5677 15.30196777 27893
STARLINK-34612          
1 64773U 25147U   25362.81357016  .00030937  00000+0  10519-2 0  9994
2 64773  53.1570 211.7268 0001136  85.9950 274.1180 15.30211832 27901
STARLINK-34621          
1 64774U 25147V   25362.86105741  .00028634  00000+0  97471-3 0  9990
2 64774  53.1598 212.0214 0001417  87.6593 272.4570 15.30216028 27839
STARLINK-34657          
1 64775U 25147W   25362.85155869  .00037054  00000+0  12561-2 0  9998
2 64775  53.1604 211.9603 0000822 104.7679 255.3413 15.30222565 27900
STARLINK-34637          
1 64776U 25147X   25362.84522821  .00026500  00000+0  90327-3 0  9995
2 64776  53.1602 211.9225 0001700  82.8660 277.2534 15.30213913 27837
STARLINK-34547          
1 64777U 25147Y   25362.76935046  .00019055  00000+0  65402-3 0  9997
2 64777  53.1592 212.1603 0000798  37.3571 322.7485 15.30189868 27833
STARLINK-34537          
1 64778U 25147Z   25362.82847935  .00039446  00000+0  99011-3 0  9993
2 64778  53.1574 190.2051 0001521  87.9619 272.1560 15.39648053 28238
STARLINK-34585          
1 64779U 25147AA  25362.82201250  .00025474  00000+0  86899-3 0  9994
2 64779  53.1572 211.7780 0001420  97.7517 262.3645 15.30209886 27859
STARLINK-34491          
1 64780U 25147AB  25362.81567808  .00025630  00000+0  87425-3 0  9999
2 64780  53.1564 211.7320 0000632  82.3575 277.7497 15.30208268 27904
STARLINK-34582          
1 64781U 25147AC  25362.81673436  .00022193  00000+0  75933-3 0  9997
2 64781  53.1566 211.7422 0001176  87.0817 273.0319 15.30194738 27835
STARLINK-34482          
1 64782U 25147AD  25362.82306601  .00016941  00000+0  58271-3 0  9996
2 64782  53.1574 211.7811 0001157  88.8333 271.2801 15.30204744 27945
STARLINK-34629          
1 64790U 25150A   25362.29368822  .00012722  00000+0  10494-2 0  9990
2 64790  70.0006 314.4197 0002393 278.9060  81.1828 14.99156644 25823
STARLINK-34697          
1 64791U 25150B   25362.28727508  .00007127  00000+0  60427-3 0  9995
2 64791  70.0003 314.3916 0002362 271.0537  89.0351 14.98343009 25828
STARLINK-34632          
1 64792U 25150C   25362.82739959  .00008411  00000+0  72675-3 0  9994
2 64792  70.0010 312.9477 0002867 269.0493  91.0337 14.97525983 25909
STARLINK-34693          
1 64793U 25150D   25362.86704935  .01296667  00000+0  95341-1 0  9991
2 64793  70.0001 313.2038 0011204 236.3099 123.6994 15.00179676 25901
STARLINK-34666          
1 64794U 25150E   25362.80051250  .00008398  00000+0  71060-3 0  9996
2 64794  70.0002 313.3769 0002616 277.2379  82.8483 14.98341495 25890
STARLINK-34567          
1 64795U 25150F   25362.83334491  .00041092  00000+0  34327-2 0  9993
2 64795  69.9999 312.9401 0002888 272.0061 220.2397 14.98316743  5835
STARLINK-34646          
1 64796U 25150G   25362.24989860  .00008901  00000+0  75258-3 0  9996
2 64796  70.0020 314.6602 0001877 261.0483  99.0464 14.98342168 26705
STARLINK-34641          
1 64797U 25150H   25362.83686164  .00006012  00000+0  50055-3 0  9992
2 64797  70.0013 313.0979 0002413 271.9848  88.1035 14.99147153 26734
STARLINK-34649          
1 64798U 25150J   25362.59117836  .00025926  00000+0  21260-2 0  9991
2 64798  70.0056 313.8510 0002059 265.4054  94.6871 14.99169199 26750
STARLINK-34662          
1 64799U 25150K   25362.83334491  .00044352  00000+0  37026-2 0  9998
2 64799  70.0000 312.9442 0002867 256.6623 234.6935 14.98317672  5940
STARLINK-34660          
1 64800U 25150L   25362.29221266  .00009542  00000+0  78907-3 0  9992
2 64800  70.0006 314.4104 0002541 278.6131  81.4741 14.99171905 25828
STARLINK-34604          
1 64801U 25150M   25362.23721502  .00011479  00000+0  96751-3 0  9994
2 64801  70.0016 314.6200 0002242 254.0032 106.0880 14.98359413 25813
STARLINK-34658          
1 64802U 25150N   25362.59605676  .00009577  00000+0  80914-3 0  9997
2 64802  70.0014 313.8608 0002502 274.9330  85.1544 14.98339611 25863
STARLINK-34620          
1 64803U 25150P   25362.59620778 -.00006233  00000+0 -51523-3 0  9990
2 64803  69.9993 313.8593 0002523 281.2733  78.8142 14.98319337 25867
STARLINK-34633          
1 64804U 25150Q   25362.30625922 -.00001870  00000+0 -14582-3 0  9992
2 64804  70.0020 314.4539 0002573 265.0234  95.0632 14.99145991 25825
STARLINK-34624          
1 64805U 25150R   25362.59468727  .00009646  00000+0  79808-3 0  9991
2 64805  70.0021 313.8590 0002000 280.7445  79.3489 14.99147855 25860
STARLINK-34664          
1 64806U 25150S   25362.27195419  .00004621  00000+0  38658-3 0  9998
2 64806  70.0006 314.3371 0002785 269.6007  90.4833 14.99146566 25828
STARLINK-34663          
1 64807U 25150T   25362.58482013  .00014940  00000+0  12310-2 0  9993
2 64807  70.0015 313.8267 0002474 267.1422  92.9454 14.99145976 25860
STARLINK-34696          
1 64808U 25150U   25362.85473823  .00009917  00000+0  82019-3 0  9995
2 64808  70.0021 313.1590 0002691 303.5174  56.5728 14.99151843 25905
STARLINK-34675          
1 64809U 25150V   25362.23843046  .00007841  00000+0  65024-3 0  9997
2 64809  70.0005 314.6252 0002656 272.6735  87.4120 14.99153843 25810
STARLINK-34608          
1 64810U 25150W   25362.29180771  .00001874  00000+0  16143-3 0  9992
2 64810  70.0005 314.4090 0002862 270.5288  89.5543 14.99150905 25828
STARLINK-34669          
1 64811U 25150X   25362.27892535  .00010311  00000+0  87033-3 0  9991
2 64811  70.0012 314.3599 0002605 270.9954  89.0907 14.98344549 25826
STARLINK-34644          
1 64812U 25150Y   25362.58787049  .00006215  00000+0  52816-3 0  9998
2 64812  70.0011 313.7868 0002879 266.9794  93.1035 14.98334652 25864
